[{"OBJECT_NAME":"DEKART","OBJECT_ID":"2020-068H","EPOCH":"2026-03-09T23:59:57.066720","MEAN_MOTION":15.34869301,"ECCENTRICITY":0.00073753,"INCLINATION":97.8782,"RA_OF_ASC_NODE":71.3423,"ARG_OF_PERICENTER":278.3856,"MEAN_ANOMALY":81.655,"EPHEMERIS_TYPE":0,"CLASSIFICATION_TYPE":"U","NORAD_CAT_ID":46493,"ELEMENT_SET_NO":999,"REV_AT_EPOCH":30054,"BSTAR":0.00048248993,"MEAN_MOTION_DOT":0.00016256,"MEAN_MOTION_DDOT":0},{"OBJECT_NAME":"STARLINK-30100","OBJECT_ID":"2023-119X","EPOCH":"2026-03-09T22:00:01.999584","MEAN_MOTION":15.17573098,"ECCENTRICITY":0.00019511,"INCLINATION":43.0003,"RA_OF_ASC_NODE":79.9179,"ARG_OF_PERICENTER":284.7245,"MEAN_ANOMALY":141.6693,"EPHEMERIS_TYPE":0,"CLASSIFICATION_TYPE":"U","NORAD_CAT_ID":57623,"ELEMENT_SET_NO":999,"REV_AT_EPOCH":573,"BSTAR":0.052332137,"MEAN_MOTION_DOT":0.01165297,"MEAN_MOTION_DDOT":0}]
